[{"OBJECT_NAME":"STARLINK-5151","OBJECT_ID":"2022-136R","EPOCH":"2025-07-31T10:26:56.324832","MEAN_MOTION":15.08350672,"ECCENTRICITY":0.0001608,"INCLINATION":53.2172,"RA_OF_ASC_NODE":257.2623,"ARG_OF_PERICENTER":91.8312,"MEAN_ANOMALY":268.2864,"EPHEMERIS_TYPE":0,"CLASSIFICATION_TYPE":"U","NORAD_CAT_ID":54066,"ELEMENT_SET_NO":999,"REV_AT_EPOCH":15392,"BSTAR":0.0027771,"MEAN_MOTION_DOT":0.00043594,"MEAN_MOTION_DDOT":0},{"OBJECT_NAME":"STARLINK-5174","OBJECT_ID":"2022-136S","EPOCH":"2025-07-31T10:11:18.411360","MEAN_MOTION":15.08838053,"ECCENTRICITY":0.0001104,"INCLINATION":53.2167,"RA_OF_ASC_NODE":257.1938,"ARG_OF_PERICENTER":79.3259,"MEAN_ANOMALY":280.7858,"EPHEMERIS_TYPE":0,"CLASSIFICATION_TYPE":"U","NORAD_CAT_ID":54067,"ELEMENT_SET_NO":999,"REV_AT_EPOCH":15392,"BSTAR":-2.3786e-5,"MEAN_MOTION_DOT":-6.66e-6,"MEAN_MOTION_DDOT":0},{"OBJECT_NAME":"STARLINK-5222","OBJECT_ID":"2022-136T","EPOCH":"2025-07-31T08:41:13.742304","MEAN_MOTION":15.08836646,"ECCENTRICITY":0.0001206,"INCLINATION":53.2167,"RA_OF_ASC_NODE":257.5135,"ARG_OF_PERICENTER":82.299,"MEAN_ANOMALY":277.8139,"EPHEMERIS_TYPE":0,"CLASSIFICATION_TYPE":"U","NORAD_CAT_ID":54068,"ELEMENT_SET_NO":999,"REV_AT_EPOCH":15391,"BSTAR":6.1643e-7,"MEAN_MOTION_DOT":-2.78e-6,"MEAN_MOTION_DDOT":0},{"OBJECT_NAME":"STARLINK-5181","OBJECT_ID":"2022-136V","EPOCH":"2025-07-31T03:39:09.424224","MEAN_MOTION":15.088354,"ECCENTRICITY":0.0001119,"INCLINATION":53.2165,"RA_OF_ASC_NODE":258.3382,"ARG_OF_PERICENTER":84.9163,"MEAN_ANOMALY":275.1957,"EPHEMERIS_TYPE":0,"CLASSIFICATION_TYPE":"U","NORAD_CAT_ID":54070,"ELEMENT_SET_NO":999,"REV_AT_EPOCH":15388,"BSTAR":6.4656e-5,"MEAN_MOTION_DOT":7.41e-6,"MEAN_MOTION_DDOT":0},{"OBJECT_NAME":"STARLINK-5168","OBJECT_ID":"2022-136W","EPOCH":"2025-07-30T10:04:36.009408","MEAN_MOTION":15.08839388,"ECCENTRICITY":0.0001102,"INCLINATION":53.2168,"RA_OF_ASC_NODE":261.5866,"ARG_OF_PERICENTER":80.4828,"MEAN_ANOMALY":279.6289,"EPHEMERIS_TYPE":0,"CLASSIFICATION_TYPE":"U","NORAD_CAT_ID":54071,"ELEMENT_SET_NO":999,"REV_AT_EPOCH":15329,"BSTAR":5.8066e-5,"MEAN_MOTION_DOT":6.36e-6,"MEAN_MOTION_DDOT":0},{"OBJECT_NAME":"STARLINK-5146","OBJECT_ID":"2022-136Y","EPOCH":"2025-07-30T19:34:55.811136","MEAN_MOTION":15.08837167,"ECCENTRICITY":0.0001084,"INCLINATION":53.2161,"RA_OF_ASC_NODE":254.8108,"ARG_OF_PERICENTER":78.7951,"MEAN_ANOMALY":281.3163,"EPHEMERIS_TYPE":0,"CLASSIFICATION_TYPE":"U","NORAD_CAT_ID":54073,"ELEMENT_SET_NO":999,"REV_AT_EPOCH":15342,"BSTAR":9.7601e-6,"MEAN_MOTION_DOT":-1.32e-6,"MEAN_MOTION_DDOT":0},{"OBJECT_NAME":"STARLINK-5192","OBJECT_ID":"2022-136Z","EPOCH":"2025-07-31T03:28:32.480832","MEAN_MOTION":15.08837375,"ECCENTRICITY":0.0001069,"INCLINATION":53.2167,"RA_OF_ASC_NODE":258.2915,"ARG_OF_PERICENTER":88.2052,"MEAN_ANOMALY":271.9062,"EPHEMERIS_TYPE":0,"CLASSIFICATION_TYPE":"U","NORAD_CAT_ID":54074,"ELEMENT_SET_NO":999,"REV_AT_EPOCH":15388,"BSTAR":-3.2332e-6,"MEAN_MOTION_DOT":-3.39e-6,"MEAN_MOTION_DDOT":0},{"OBJECT_NAME":"STARLINK-5212","OBJECT_ID":"2022-136AA","EPOCH":"2025-07-30T19:29:37.428000","MEAN_MOTION":15.08837755,"ECCENTRICITY":0.000102,"INCLINATION":53.2159,"RA_OF_ASC_NODE":254.7844,"ARG_OF_PERICENTER":75.1506,"MEAN_ANOMALY":284.96,"EPHEMERIS_TYPE":0,"CLASSIFICATION_TYPE":"U","NORAD_CAT_ID":54075,"ELEMENT_SET_NO":999,"REV_AT_EPOCH":15342,"BSTAR":2.5249e-5,"MEAN_MOTION_DOT":1.14e-6,"MEAN_MOTION_DDOT":0},{"OBJECT_NAME":"STARLINK-5201","OBJECT_ID":"2022-136AB","EPOCH":"2025-07-31T03:14:07.475136","MEAN_MOTION":15.08835967,"ECCENTRICITY":0.0001079,"INCLINATION":53.2165,"RA_OF_ASC_NODE":258.9243,"ARG_OF_PERICENTER":86.5102,"MEAN_ANOMALY":273.6013,"EPHEMERIS_TYPE":0,"CLASSIFICATION_TYPE":"U","NORAD_CAT_ID":54076,"ELEMENT_SET_NO":999,"REV_AT_EPOCH":15387,"BSTAR":-1.5789e-5,"MEAN_MOTION_DOT":-5.39e-6,"MEAN_MOTION_DDOT":0},{"OBJECT_NAME":"STARLINK-5171","OBJECT_ID":"2022-136AC","EPOCH":"2025-07-31T08:32:48.830208","MEAN_MOTION":15.08835148,"ECCENTRICITY":9.65e-5,"INCLINATION":53.2164,"RA_OF_ASC_NODE":233.3619,"ARG_OF_PERICENTER":74.5375,"MEAN_ANOMALY":285.5724,"EPHEMERIS_TYPE":0,"CLASSIFICATION_TYPE":"U","NORAD_CAT_ID":54077,"ELEMENT_SET_NO":999,"REV_AT_EPOCH":15425,"BSTAR":3.7501e-6,"MEAN_MOTION_DOT":-2.28e-6,"MEAN_MOTION_DDOT":0},{"OBJECT_NAME":"STARLINK-5138","OBJECT_ID":"2022-136AD","EPOCH":"2025-07-30T18:36:01.671840","MEAN_MOTION":15.08836252,"ECCENTRICITY":9.63e-5,"INCLINATION":53.2163,"RA_OF_ASC_NODE":240.2903,"ARG_OF_PERICENTER":79.6538,"MEAN_ANOMALY":280.4563,"EPHEMERIS_TYPE":0,"CLASSIFICATION_TYPE":"U","NORAD_CAT_ID":54078,"ELEMENT_SET_NO":999,"REV_AT_EPOCH":15362,"BSTAR":1.6844e-5,"MEAN_MOTION_DOT":-2.0e-7,"MEAN_MOTION_DDOT":0},{"OBJECT_NAME":"STARLINK-5175","OBJECT_ID":"2022-136AE","EPOCH":"2025-07-31T03:14:04.578144","MEAN_MOTION":15.08834771,"ECCENTRICITY":0.0001099,"INCLINATION":53.2163,"RA_OF_ASC_NODE":248.944,"ARG_OF_PERICENTER":85.4412,"MEAN_ANOMALY":274.6705,"EPHEMERIS_TYPE":0,"CLASSIFICATION_TYPE":"U","NORAD_CAT_ID":54079,"ELEMENT_SET_NO":999,"REV_AT_EPOCH":15401,"BSTAR":4.4845e-6,"MEAN_MOTION_DOT":-2.16e-6,"MEAN_MOTION_DDOT":0},{"OBJECT_NAME":"STARLINK-5160","OBJECT_ID":"2022-136AF","EPOCH":"2025-07-31T09:26:59.898048","MEAN_MOTION":15.08850155,"ECCENTRICITY":0.0001461,"INCLINATION":53.2166,"RA_OF_ASC_NODE":252.7236,"ARG_OF_PERICENTER":80.0169,"MEAN_ANOMALY":280.0988,"EPHEMERIS_TYPE":0,"CLASSIFICATION_TYPE":"U","NORAD_CAT_ID":54080,"ELEMENT_SET_NO":999,"REV_AT_EPOCH":15398,"BSTAR":5.5148e-5,"MEAN_MOTION_DOT":5.9e-6,"MEAN_MOTION_DDOT":0},{"OBJECT_NAME":"STARLINK-5165","OBJECT_ID":"2022-136AG","EPOCH":"2025-07-30T20:15:24.130656","MEAN_MOTION":15.08825426,"ECCENTRICITY":8.94e-5,"INCLINATION":53.2166,"RA_OF_ASC_NODE":249.9795,"ARG_OF_PERICENTER":89.1165,"MEAN_ANOMALY":270.993,"EPHEMERIS_TYPE":0,"CLASSIFICATION_TYPE":"U","NORAD_CAT_ID":54081,"ELEMENT_SET_NO":999,"REV_AT_EPOCH":15349,"BSTAR":7.9771e-5,"MEAN_MOTION_DOT":9.82e-6,"MEAN_MOTION_DDOT":0},{"OBJECT_NAME":"STARLINK-5210","OBJECT_ID":"2022-136AH","EPOCH":"2025-07-31T09:30:17.242560","MEAN_MOTION":15.08853039,"ECCENTRICITY":9.96e-5,"INCLINATION":53.216,"RA_OF_ASC_NODE":247.7321,"ARG_OF_PERICENTER":82.0547,"MEAN_ANOMALY":278.0558,"EPHEMERIS_TYPE":0,"CLASSIFICATION_TYPE":"U","NORAD_CAT_ID":54082,"ELEMENT_SET_NO":999,"REV_AT_EPOCH":15405,"BSTAR":0.00013338,"MEAN_MOTION_DOT":1.836e-5,"MEAN_MOTION_DDOT":0},{"OBJECT_NAME":"STARLINK-5178","OBJECT_ID":"2022-136AJ","EPOCH":"2025-07-31T09:14:23.722656","MEAN_MOTION":15.08835488,"ECCENTRICITY":0.0001042,"INCLINATION":53.2163,"RA_OF_ASC_NODE":247.6641,"ARG_OF_PERICENTER":81.2344,"MEAN_ANOMALY":278.8766,"EPHEMERIS_TYPE":0,"CLASSIFICATION_TYPE":"U","NORAD_CAT_ID":54083,"ELEMENT_SET_NO":999,"REV_AT_EPOCH":15405,"BSTAR":-1.4152e-5,"MEAN_MOTION_DOT":-5.13e-6,"MEAN_MOTION_DDOT":0},{"OBJECT_NAME":"STARLINK-5183","OBJECT_ID":"2022-136AK","EPOCH":"2025-07-31T03:03:27.634752","MEAN_MOTION":15.08836842,"ECCENTRICITY":0.0001079,"INCLINATION":53.2165,"RA_OF_ASC_NODE":248.8983,"ARG_OF_PERICENTER":75.9409,"MEAN_ANOMALY":284.1703,"EPHEMERIS_TYPE":0,"CLASSIFICATION_TYPE":"U","NORAD_CAT_ID":54084,"ELEMENT_SET_NO":999,"REV_AT_EPOCH":15401,"BSTAR":1.4857e-6,"MEAN_MOTION_DOT":-2.64e-6,"MEAN_MOTION_DDOT":0}]
