STARLINK-5151           
1 54066U 22136R   25212.43537413  .00043594  00000+0  27771-2 0  9997
2 54066  53.2172 257.2623 0001608  91.8312 268.2864 15.08350672153922
STARLINK-5174           
1 54067U 22136S   25212.42451865 -.00000666  00000+0 -23786-4 0  9992
2 54067  53.2167 257.1938 0001104  79.3259 280.7858 15.08838053153923
STARLINK-5222           
1 54068U 22136T   25212.36196461 -.00000278  00000+0  61643-6 0  9998
2 54068  53.2167 257.5135 0001206  82.2990 277.8139 15.08836646153919
STARLINK-5181           
1 54070U 22136V   25212.15219241  .00000741  00000+0  64656-4 0  9999
2 54070  53.2165 258.3382 0001119  84.9163 275.1957 15.08835400153889
STARLINK-5168           
1 54071U 22136W   25211.41986122  .00000636  00000+0  58066-4 0  9998
2 54071  53.2168 261.5866 0001102  80.4828 279.6289 15.08839388153298
STARLINK-5146           
1 54073U 22136Y   25211.81592374 -.00000132  00000+0  97601-5 0  9997
2 54073  53.2161 254.8108 0001084  78.7951 281.3163 15.08837167153422
STARLINK-5192           
1 54074U 22136Z   25212.14482038 -.00000339  00000+0 -32332-5 0  9990
2 54074  53.2167 258.2915 0001069  88.2052 271.9062 15.08837375153888
STARLINK-5212           
1 54075U 22136AA  25211.81223875  .00000114  00000+0  25249-4 0  9993
2 54075  53.2159 254.7844 0001020  75.1506 284.9600 15.08837755153422
STARLINK-5201           
1 54076U 22136AB  25212.13480874 -.00000539  00000+0 -15789-4 0  9995
2 54076  53.2165 258.9243 0001079  86.5102 273.6013 15.08835967153876
STARLINK-5171           
1 54077U 22136AC  25212.35612072 -.00000228  00000+0  37501-5 0  9998
2 54077  53.2164 233.3619 0000965  74.5375 285.5724 15.08835148154257
STARLINK-5138           
1 54078U 22136AD  25211.77501935 -.00000020  00000+0  16844-4 0  9995
2 54078  53.2163 240.2903 0000963  79.6538 280.4563 15.08836252153627
STARLINK-5175           
1 54079U 22136AE  25212.13477521 -.00000216  00000+0  44845-5 0  9990
2 54079  53.2163 248.9440 0001099  85.4412 274.6705 15.08834771154017
STARLINK-5160           
1 54080U 22136AF  25212.39374882  .00000590  00000+0  55148-4 0  9997
2 54080  53.2166 252.7236 0001461  80.0169 280.0988 15.08850155153984
STARLINK-5165           
1 54081U 22136AG  25211.84402929  .00000982  00000+0  79771-4 0  9994
2 54081  53.2166 249.9795 0000894  89.1165 270.9930 15.08825426153492
STARLINK-5210           
1 54082U 22136AH  25212.39603290  .00001836  00000+0  13338-3 0  9995
2 54082  53.2160 247.7321 0000996  82.0547 278.0558 15.08853039154056
STARLINK-5178           
1 54083U 22136AJ  25212.38499679 -.00000513  00000+0 -14152-4 0  9998
2 54083  53.2163 247.6641 0001042  81.2344 278.8766 15.08835488154050
STARLINK-5183           
1 54084U 22136AK  25212.12740318 -.00000264  00000+0  14857-5 0  9995
2 54084  53.2165 248.8983 0001079  75.9409 284.1703 15.08836842154019
